     2.100          NAVIGATION                              RINEX VERSION / TYPE
fic2rin                                 06/15/2011 00:15:14 PGM / RUN BY / DATE
                                                            END OF HEADER
 2 11  6 14 18  0  0.0  .341704580933D-03  .193267624127D-11  .000000000000D+00
     .500000000000D+02 -.212500000000D+02  .518807324693D-08 -.177911756558D+01
    -.113621354103D-05  .103012621403D-01  .652857124805D-05  .515375951385D+04
     .237600000000D+06 -.372529029846D-08 -.126056190797D+01 -.149011611938D-06
     .938541286286D+00  .242375000000D+03 -.297857167669D+01 -.818319800590D-08
    -.313584490624D-09  .100000000000D+01  .164000000000D+04  .000000000000D+00
     .240000000000D+01  .000000000000D+00 -.172294676304D-07  .500000000000D+02
     .230406000000D+06  .400000000000D+01
 3 11  6 14 18  0  0.0  .728625804186D-03  .511590769747D-11  .000000000000D+00
     .850000000000D+02  .201562500000D+02  .524271838026D-08 -.164943832182D+01
     .110641121864D-05  .143059983384D-01  .764802098274D-05  .515365413094D+04
     .237600000000D+06  .327825546265D-06 -.241918872577D+01  .409781932831D-07
     .928910827813D+00  .212781250000D+03  .109579120058D+01 -.814855370568D-08
     .517164399116D-09  .100000000000D+01  .164000000000D+04  .000000000000D+00
     .485000000000D+01  .000000000000D+00 -.465661287308D-08  .850000000000D+02
     .230406000000D+06  .400000000000D+01
 4 11  6 14 18  0  0.0  .144110526890D-03  .108002495836D-10  .000000000000D+00
     .440000000000D+02 -.166562500000D+02  .530057793320D-08  .140703829373D+01
    -.821426510811D-06  .957881205250D-02  .681169331074D-05  .515365085411D+04
     .237600000000D+06 -.117346644402D-06 -.124320532415D+01  .465661287308D-07
     .937639249535D+00  .240437500000D+03  .727673895636D+00 -.835427656058D-08
    -.568595112840D-09  .100000000000D+01  .164000000000D+04  .000000000000D+00
     .240000000000D+01  .000000000000D+00 -.605359673500D-08  .440000000000D+02
     .230406000000D+06  .400000000000D+01
 5 11  6 14 18  0  0.0 -.174789689481D-03 -.557065504836D-11  .000000000000D+00
     .560000000000D+02  .100312500000D+03  .420017495415D-08  .185981069464D+00
     .527128577232D-05  .223422842100D-02  .116210430861D-04  .515369887733D+04
     .237600000000D+06  .391155481339D-07 -.198847880161D+00 -.204890966415D-07
     .954414488726D+00  .151562500000D+03  .194672414990D+00 -.778139555493D-08
    -.238224208709D-09  .100000000000D+01  .164000000000D+04  .000000000000D+00
     .240000000000D+01  .000000000000D+00 -.102445483208D-07  .560000000000D+02
     .230406000000D+06  .400000000000D+01
 6 11  6 14 18  0  0.0  .205810181797D-03 -.825366441859D-10  .000000000000D+00
     .130000000000D+02  .147187500000D+02  .523843248745D-08  .378784104827D+00
     .583007931709D-06  .677808502223D-02  .751577317715D-05  .515363436317D+04
     .237600000000D+06  .223517417908D-07 -.234540376506D+01 -.117346644402D-06
     .935954981710D+00  .223812500000D+03 -.770636957174D+00 -.836749139675D-08
     .443947063606D-09  .100000000000D+01  .164000000000D+04  .000000000000D+00
     .240000000000D+01  .000000000000D+00 -.512227416039D-08  .130000000000D+02
     .230406000000D+06  .400000000000D+01
 7 11  6 14 18  0  0.0  .143391080201D-04  .125055521494D-11  .000000000000D+00
     .790000000000D+02 -.104562500000D+03  .447268630534D-08  .298429840410D+01
    -.536255538464D-05  .454277417157D-02  .227056443691D-05  .515365518188D+04
     .237600000000D+06 -.124797224998D-06  .190701550178D+01 -.298023223877D-07
     .974430439636D+00  .345156250000D+03 -.313529940091D+01 -.817355474708D-08
    -.235009789101D-09  .100000000000D+01  .164000000000D+04  .000000000000D+00
     .240000000000D+01  .000000000000D+00 -.107102096081D-07  .790000000000D+02
     .230406000000D+06  .400000000000D+01
 9 11  6 14 18  0  0.0  .863880850375D-04  .238742359215D-11  .000000000000D+00
     .430000000000D+02 -.112656250000D+03  .420624663563D-08  .226441532697D+01
    -.604055821896D-05  .174321999075D-01  .713393092155D-06  .515366974068D+04
     .237600000000D+06  .197440385818D-06  .187869129092D+01 -.121071934700D-06
     .983321407649D+00  .374156250000D+03  .157525340662D+01 -.798068957061D-08
    -.368586781690D-09  .100000000000D+01  .164000000000D+04  .000000000000D+00
     .240000000000D+01  .000000000000D+00 -.558793544769D-08  .430000000000D+02
     .230406000000D+06  .400000000000D+01
10 11  6 14 18  0  0.0 -.369129702449D-05 -.113686837722D-11  .000000000000D+00
     .104000000000D+03  .930000000000D+02  .445197115675D-08  .407713659482D+00
     .485405325890D-05  .101711184252D-01  .112317502499D-04  .515362182999D+04
     .237600000000D+06 -.298023223877D-07 -.175275977702D+00  .158324837685D-06
     .949365333768D+00  .159718750000D+03  .703550559373D+00 -.797426073140D-08
    -.271797035723D-09  .100000000000D+01  .164000000000D+04  .000000000000D+00
     .485000000000D+01  .000000000000D+00 -.232830643654D-08  .104000000000D+03
     .230406000000D+06  .400000000000D+01
11 11  6 14 18  0  0.0 -.159506686032D-03 -.329691829393D-11  .000000000000D+00
     .900000000000D+02 -.195312500000D+02  .645848330747D-08  .312833700219D+01
    -.103190541267D-05  .117994676111D-01  .460632145405D-05  .515365799713D+04
     .237600000000D+06  .372529029846D-07 -.149889125971D+01 -.137835741043D-06
     .887437694211D+00  .250593750000D+03  .934470729897D+00 -.876679374358D-08
    -.207508643568D-09  .100000000000D+01  .164000000000D+04  .000000000000D+00
     .240000000000D+01  .000000000000D+00 -.116415321827D-07  .900000000000D+02
     .230406000000D+06  .400000000000D+01
12 11  6 14 18  0  0.0  .245310366154D-05  .261479726760D-11  .000000000000D+00
     .220000000000D+02 -.118000000000D+03  .373944147703D-08  .283730157791D+01
    -.613927841187D-05  .371028634254D-02  .117626041174D-04  .515374261284D+04
     .237600000000D+06 -.819563865662D-07  .296195964942D+01  .558793544769D-07
     .975857570351D+00  .160062500000D+03 -.151595804677D+00 -.747245411485D-08
     .164292557730D-09  .100000000000D+01  .164000000000D+04  .000000000000D+00
     .240000000000D+01  .000000000000D+00 -.121071934700D-07  .220000000000D+02
     .230406000000D+06  .400000000000D+01
13 11  6 14 18  0  0.0  .265540089458D-03 -.159161572810D-11  .000000000000D+00
     .320000000000D+02  .976875000000D+02  .416588781166D-08 -.843283344833D+00
     .501051545143D-05  .477833522018D-02  .227242708206D-05  .515358627701D+04
     .237600000000D+06 -.130385160446D-07  .931801210152D+00  .931322574615D-08
     .989524797657D+00  .357125000000D+03  .186552848947D+01 -.814498212834D-08
     .329299430929D-09  .100000000000D+01  .164000000000D+04  .000000000000D+00
     .240000000000D+01  .000000000000D+00 -.111758708954D-07  .320000000000D+02
     .230406000000D+06  .400000000000D+01
14 11  6 14 18  0  0.0  .156005378813D-03  .227373675443D-11  .000000000000D+00
     .460000000000D+02  .110718750000D+03  .431553690229D-08 -.807286602636D+00
     .590644776821D-05  .580742908642D-02  .263750553131D-05  .515367488861D+04
     .237600000000D+06 -.745058059692D-07  .907473372571D+00  .137835741043D-06
     .982567950711D+00  .341156250000D+03 -.211104971619D+01 -.820391315448D-08
     .313227332890D-09  .100000000000D+01  .164000000000D+04  .000000000000D+00
     .240000000000D+01  .000000000000D+00 -.884756445885D-08  .460000000000D+02
     .230406000000D+06  .400000000000D+01
15 11  6 14 18  0  0.0 -.121618155390D-03  .227373675443D-11  .000000000000D+00
     .960000000000D+02  .137187500000D+03  .496342103212D-08 -.121141394332D+01
     .689737498760D-05  .342632539105D-02  .221282243729D-05  .515363153076D+04
     .237600000000D+06  .931322574615D-08  .831050242453D+00 -.800937414169D-07
     .949779876476D+00  .329187500000D+03 -.469796976930D-01 -.854249868650D-08
     .395373611755D-09  .100000000000D+01  .164000000000D+04  .000000000000D+00
     .240000000000D+01  .000000000000D+00 -.102445483208D-07  .960000000000D+02
     .230406000000D+06  .400000000000D+01
16 11  6 14 18  0  0.0 -.178987160325D-03 -.250111042988D-11  .000000000000D+00
     .140000000000D+02 -.920625000000D+02  .383444543433D-08  .490514694032D+00
    -.489316880703D-05  .638533337042D-02  .105444341898D-04  .515382992935D+04
     .237600000000D+06  .122934579849D-06  .297979863193D+01 -.186264514923D-08
     .976863354325D+00  .181843750000D+03 -.972567015549D-01 -.764246119633D-08
     .807176479283D-10  .100000000000D+01  .164000000000D+04  .000000000000D+00
     .240000000000D+01  .000000000000D+00 -.977888703346D-08  .140000000000D+02
     .230406000000D+06  .400000000000D+01
17 11  6 14 18  0  0.0  .183751806617D-03 -.454747350886D-12  .000000000000D+00
     .630000000000D+02  .163125000000D+02  .482770109313D-08 -.531274122568D+00
     .827014446259D-06  .635713082738D-02  .691413879395D-05  .515376018524D+04
     .237600000000D+06  .558793544769D-07 -.226141520968D+01  .126659870148D-06
     .961155486498D+00  .247968750000D+03 -.239137445304D+01 -.813641034272D-08
     .436089593453D-09  .100000000000D+01  .164000000000D+04  .000000000000D+00
     .240000000000D+01  .000000000000D+00 -.107102096081D-07  .630000000000D+02
     .230406000000D+06  .400000000000D+01
19 11  6 14 18  0  0.0 -.151351094246D-03 -.409272615798D-11  .000000000000D+00
     .960000000000D+02  .187812500000D+02  .473698302864D-08 -.115790879713D+01
     .949949026108D-06  .741411466151D-02  .676140189171D-05  .515365835762D+04
     .237600000000D+06 -.130385160446D-07 -.220743468973D+01 -.171363353729D-06
     .958609355116D+00  .249500000000D+03  .214867043789D-01 -.800176187693D-08
     .470019578202D-09  .100000000000D+01  .164000000000D+04  .000000000000D+00
     .240000000000D+01  .000000000000D+00 -.144354999065D-07  .960000000000D+02
     .230406000000D+06  .400000000000D+01
